<?xml version='1.0' encoding='UTF-8'?>
<osm>
<node id="13354924" lat="48.6727602" lon="9.3838404">
<tag k="name" v="Wendlingen am Neckar"/>
<tag k="place" v="town"/>
</node>
<node id="13355228" lat="48.7388603" lon="9.3010797">
<tag k="name" v="Esslingen am Neckar"/>
<tag k="place" v="town"/>
</node>
<node id="13675911" lat="48.7111730" lon="9.4184961">
<tag k="name" v="Plochingen"/>
<tag k="place" v="town"/>
</node>
<node id="17652682" lat="48.9397149" lon="8.4042700">
<tag k="name" v="Ettlingen"/>
<tag k="place" v="town"/>
</node>
<node id="21618724" lat="48.3464028" lon="8.4028550">
<tag k="name" v="Alpirsbach"/>
<tag k="place" v="town"/>
</node>
<node id="26316629" lat="48.9796870" lon="9.5793759">
<tag k="name" v="Murrhardt"/>
<tag k="place" v="town"/>
</node>
<node id="26595210" lat="48.7150331" lon="8.7388853">
<tag k="name" v="Calw"/>
<tag k="place" v="town"/>
</node>
<node id="26595247" lat="48.7712716" lon="8.7321279">
<tag k="name" v="Bad Liebenzell"/>
<tag k="place" v="town"/>
</node>
<node id="27357709" lat="47.7124915" lon="7.6575863">
<tag k="name" v="Kandern"/>
<tag k="place" v="town"/>
</node>
<node id="27358183" lat="47.6120896" lon="7.6607218">
<tag k="name" v="Lörrach"/>
<tag k="place" v="town"/>
</node>
<node id="27386718" lat="47.5917173" lon="7.6124394">
<tag k="name" v="Weil am Rhein"/>
<tag k="place" v="town"/>
</node>
<node id="27386719" lat="47.6556421" lon="7.5651740">
<tag k="name" v="Efringen-Kirchen"/>
<tag k="place" v="town"/>
</node>
<node id="27402614" lat="48.8263983" lon="9.0658446">
<tag k="name" v="Ditzingen"/>
<tag k="place" v="town"/>
</node>
<node id="27421831" lat="48.4896737" lon="9.6861984">
<tag k="name" v="Laichingen"/>
<tag k="place" v="town"/>
</node>
<node id="27427605" lat="48.2752638" lon="9.4767290">
<tag k="name" v="Hayingen"/>
<tag k="place" v="town"/>
</node>
<node id="28296828" lat="47.7810907" lon="9.6125586">
<tag k="name" v="Ravensburg"/>
<tag k="place" v="town"/>
</node>
<node id="28390456" lat="48.4637727" lon="8.4111727">
<tag k="name" v="Freudenstadt"/>
<tag k="place" v="town"/>
</node>
<node id="28424917" lat="47.6487188" lon="7.8254844">
<tag k="name" v="Schopfheim"/>
<tag k="place" v="town"/>
</node>
<node id="28424919" lat="47.7387447" lon="8.0013624">
<tag k="name" v="Todtmoos"/>
<tag k="place" v="town"/>
</node>
<node id="29013572" lat="48.8736283" lon="10.2487381">
<tag k="name" v="Lauchheim"/>
<tag k="place" v="town"/>
</node>
<node id="29094003" lat="47.7602106" lon="8.1314260">
<tag k="name" v="Sankt Blasien"/>
<tag k="place" v="town"/>
</node>
<node id="29381503" lat="47.7053564" lon="7.8475065">
<tag k="name" v="Zell im Wiesental"/>
<tag k="place" v="town"/>
</node>
<node id="29390714" lat="48.6374291" lon="9.1312415">
<tag k="name" v="Waldenbuch"/>
<tag k="place" v="town"/>
</node>
<node id="29727657" lat="49.1434266" lon="9.1240565">
<tag k="name" v="Leingarten"/>
<tag k="place" v="town"/>
</node>
<node id="29731723" lat="48.9999435" lon="9.7700533">
<tag k="name" v="Gaildorf"/>
<tag k="place" v="town"/>
</node>
<node id="29736474" lat="49.2393031" lon="9.1012680">
<tag k="name" v="Bad Rappenau"/>
<tag k="place" v="town"/>
</node>
<node id="29764663" lat="47.8303378" lon="7.9452378">
<tag k="name" v="Todtnau"/>
<tag k="place" v="town"/>
</node>
<node id="29812822" lat="48.8577133" lon="10.3518121">
<tag k="name" v="Bopfingen"/>
<tag k="place" v="town"/>
</node>
<node id="29909374" lat="48.6391116" lon="9.0116947">
<tag k="name" v="Holzgerlingen"/>
<tag k="place" v="town"/>
</node>
<node id="29950833" lat="47.9209556" lon="9.7542772">
<tag k="name" v="Bad Waldsee"/>
<tag k="place" v="town"/>
</node>
<node id="30080697" lat="49.2803765" lon="9.6901512">
<tag k="name" v="Künzelsau"/>
<tag k="place" v="town"/>
</node>
<node id="30894548" lat="48.8955078" lon="9.1895802">
<tag k="name" v="Ludwigsburg"/>
<tag k="place" v="town"/>
</node>
<node id="30902958" lat="49.1503044" lon="9.2865471">
<tag k="name" v="Weinsberg"/>
<tag k="place" v="town"/>
</node>
<node id="30960702" lat="48.9487272" lon="8.8492931">
<tag k="name" v="Mühlacker"/>
<tag k="place" v="town"/>
</node>
<node id="30976307" lat="47.9154269" lon="7.7016452">
<tag k="name" v="Bad Krozingen"/>
<tag k="place" v="town"/>
</node>
<node id="31057345" lat="48.8168214" lon="9.4338430">
<tag k="name" v="Remshalden"/>
<tag k="place" v="town"/>
</node>
<node id="31066737" lat="48.8136963" lon="9.3722682">
<tag k="name" v="Weinstadt"/>
<tag k="place" v="town"/>
</node>
<node id="31153067" lat="48.6312304" lon="9.3380841">
<tag k="name" v="Nürtingen"/>
<tag k="place" v="town"/>
</node>
<node id="31261076" lat="49.2889174" lon="9.5608005">
<tag k="name" v="Forchtenberg"/>
<tag k="place" v="town"/>
</node>
<node id="31372616" lat="48.0984413" lon="9.7899938">
<tag k="name" v="Biberach an der Riß"/>
<tag k="place" v="town"/>
</node>
<node id="31372618" lat="48.2305342" lon="9.8771587">
<tag k="name" v="Laupheim"/>
<tag k="place" v="town"/>
</node>
<node id="31372619" lat="48.0670623" lon="9.9533435">
<tag k="name" v="Ochsenhausen"/>
<tag k="place" v="town"/>
</node>
<node id="31950054" lat="48.3675198" lon="8.7985138">
<tag k="name" v="Haigerloch"/>
<tag k="place" v="town"/>
</node>
<node id="32517878" lat="48.7855073" lon="10.1106691">
<tag k="name" v="Oberkochen"/>
<tag k="place" v="town"/>
</node>
<node id="32586939" lat="48.9646393" lon="8.6256161">
<tag k="name" v="Königsbach-Stein"/>
<tag k="place" v="town"/>
</node>
<node id="33050286" lat="48.8747017" lon="9.6342987">
<tag k="name" v="Welzheim"/>
<tag k="place" v="town"/>
</node>
<node id="33533719" lat="48.9844859" lon="9.4609301">
<tag k="name" v="Oppenweiler"/>
<tag k="place" v="town"/>
</node>
<node id="34032963" lat="48.0158071" lon="9.5010309">
<tag k="name" v="Bad Saulgau"/>
<tag k="place" v="town"/>
</node>
<node id="34593177" lat="48.6826604" lon="9.7586073">
<tag k="name" v="Süßen"/>
<tag k="place" v="town"/>
</node>
<node id="34818701" lat="48.0632724" lon="9.6108100">
<tag k="name" v="Bad Buchau"/>
<tag k="place" v="town"/>
</node>
<node id="34818702" lat="48.0047363" lon="9.6561098">
<tag k="name" v="Bad Schussenried"/>
<tag k="place" v="town"/>
</node>
<node id="34966115" lat="49.2300761" lon="9.2126040">
<tag k="name" v="Bad Friedrichshall"/>
<tag k="place" v="town"/>
</node>
<node id="35298278" lat="48.6271603" lon="9.8263748">
<tag k="name" v="Geislingen an der Steige"/>
<tag k="place" v="town"/>
</node>
<node id="35344151" lat="49.1375362" lon="8.9094122">
<tag k="name" v="Eppingen"/>
<tag k="place" v="town"/>
</node>
<node id="36307162" lat="47.6858650" lon="9.8365398">
<tag k="name" v="Wangen im Allgäu"/>
<tag k="place" v="town"/>
</node>
<node id="36771170" lat="48.5512399" lon="8.7234942">
<tag k="name" v="Nagold"/>
<tag k="place" v="town"/>
</node>
<node id="36854138" lat="49.2942599" lon="8.6987070">
<tag k="name" v="Wiesloch"/>
<tag k="place" v="town"/>
</node>
<node id="41165078" lat="48.8083876" lon="8.9482413">
<tag k="name" v="Rutesheim"/>
<tag k="place" v="town"/>
</node>
<node id="41488010" lat="48.3104063" lon="8.3721489">
<tag k="name" v="Schenkenzell"/>
<tag k="place" v="town"/>
</node>
<node id="48914363" lat="48.6856725" lon="9.8107595">
<tag k="name" v="Donzdorf"/>
<tag k="place" v="town"/>
</node>
<node id="49425038" lat="48.7149061" lon="9.5259189">
<tag k="name" v="Ebersbach an der Fils"/>
<tag k="place" v="town"/>
</node>
<node id="55177751" lat="49.6228626" lon="9.6627581">
<tag k="name" v="Tauberbischofsheim"/>
<tag k="place" v="town"/>
</node>
<node id="59158095" lat="49.0784228" lon="9.0674370">
<tag k="name" v="Brackenheim"/>
<tag k="place" v="town"/>
</node>
<node id="59863856" lat="47.9078673" lon="9.8949405">
<tag k="name" v="Bad Wurzach"/>
<tag k="place" v="town"/>
</node>
<node id="59863858" lat="47.9525734" lon="9.6410388">
<tag k="name" v="Aulendorf"/>
<tag k="place" v="town"/>
</node>
<node id="59976044" lat="48.4936815" lon="9.3970846">
<tag k="name" v="Bad Urach"/>
<tag k="place" v="town"/>
</node>
<node id="60023921" lat="48.1840509" lon="9.2094306">
<tag k="name" v="Veringenstadt"/>
<tag k="place" v="town"/>
</node>
<node id="60023924" lat="48.2494936" lon="9.2158776">
<tag k="name" v="Gammertingen"/>
<tag k="place" v="town"/>
</node>
<node id="60023927" lat="48.1777356" lon="9.1146397">
<tag k="name" v="Winterlingen"/>
<tag k="place" v="town"/>
</node>
<node id="60199325" lat="48.2358225" lon="9.6441788">
<tag k="name" v="Munderkingen"/>
<tag k="place" v="town"/>
</node>
<node id="60219642" lat="48.9986948" lon="8.8038083">
<tag k="name" v="Maulbronn"/>
<tag k="place" v="town"/>
</node>
<node id="60494514" lat="49.2008960" lon="9.5023324">
<tag k="name" v="Öhringen"/>
<tag k="place" v="town"/>
</node>
<node id="60739203" lat="48.1220634" lon="9.0774928">
<tag k="name" v="Stetten am kalten Markt"/>
<tag k="place" v="town"/>
</node>
<node id="60896788" lat="48.8749991" lon="9.0778484">
<tag k="name" v="Schwieberdingen"/>
<tag k="place" v="town"/>
</node>
<node id="61205988" lat="48.3954965" lon="10.0058900">
<tag k="name" v="Neu-Ulm"/>
<tag k="place" v="town"/>
</node>
<node id="61278905" lat="48.8001179" lon="9.7963529">
<tag k="name" v="Schwäbisch Gmünd"/>
<tag k="place" v="town"/>
</node>
<node id="61942762" lat="48.6480110" lon="9.4511038">
<tag k="name" v="Kirchheim unter Teck"/>
<tag k="place" v="town"/>
</node>
<node id="65252985" lat="48.2908613" lon="8.5711222">
<tag k="name" v="Oberndorf am Neckar"/>
<tag k="place" v="town"/>
</node>
<node id="67258484" lat="48.6242935" lon="10.2437957">
<tag k="name" v="Giengen an der Brenz"/>
<tag k="place" v="town"/>
</node>
<node id="69457035" lat="48.4716556" lon="7.9443780">
<tag k="name" v="Offenburg"/>
<tag k="place" v="town"/>
</node>
<node id="69483503" lat="48.8298818" lon="9.7907672">
<tag k="name" v="Mutlangen"/>
<tag k="place" v="town"/>
</node>
<node id="75528205" lat="47.9923820" lon="9.1142616">
<tag k="name" v="Meßkirch"/>
<tag k="place" v="town"/>
</node>
<node id="75681664" lat="48.4105382" lon="9.7918871">
<tag k="name" v="Blaubeuren"/>
<tag k="place" v="town"/>
</node>
<node id="76782396" lat="49.0000716" lon="9.1420843">
<tag k="name" v="Besigheim"/>
<tag k="place" v="town"/>
</node>
<node id="82576537" lat="48.9502631" lon="9.1383314">
<tag k="name" v="Bietigheim-Bissingen"/>
<tag k="place" v="town"/>
</node>
<node id="82587984" lat="48.2738617" lon="8.8557969">
<tag k="name" v="Balingen"/>
<tag k="place" v="town"/>
</node>
<node id="89394544" lat="48.6810151" lon="9.3657751">
<tag k="name" v="Köngen"/>
<tag k="place" v="town"/>
</node>
<node id="94225147" lat="48.2545659" lon="7.8080276">
<tag k="name" v="Ettenheim"/>
<tag k="place" v="town"/>
</node>
<node id="95678184" lat="48.3525529" lon="8.9642047">
<tag k="name" v="Hechingen"/>
<tag k="place" v="town"/>
</node>
<node id="96773038" lat="48.4751222" lon="8.1649323">
<tag k="name" v="Oppenau"/>
<tag k="place" v="town"/>
</node>
<node id="105848490" lat="48.9032640" lon="9.0812138">
<tag k="name" v="Markgröningen"/>
<tag k="place" v="town"/>
</node>
<node id="111603495" lat="48.1255071" lon="7.8153063">
<tag k="name" v="Teningen"/>
<tag k="place" v="town"/>
</node>
<node id="111609714" lat="48.1918267" lon="7.7689368">
<tag k="name" v="Kenzingen"/>
<tag k="place" v="town"/>
</node>
<node id="116066941" lat="49.1365483" lon="10.0721825">
<tag k="name" v="Crailsheim"/>
<tag k="place" v="town"/>
</node>
<node id="121793400" lat="48.0596619" lon="8.4598995">
<tag k="name" v="Villingen"/>
<tag k="place" v="town"/>
</node>
<node id="122658025" lat="48.7990507" lon="8.4382557">
<tag k="name" v="Bad Herrenalb"/>
<tag k="place" v="town"/>
</node>
<node id="130097171" lat="48.7965338" lon="9.3286487">
<tag k="name" v="Kernen im Remstal"/>
<tag k="place" v="town"/>
</node>
<node id="130390087" lat="48.4061700" lon="9.0537997">
<tag k="name" v="Mössingen"/>
<tag k="place" v="town"/>
</node>
<node id="130716777" lat="48.7084215" lon="9.0036877">
<tag k="name" v="Sindelfingen"/>
<tag k="place" v="town"/>
</node>
<node id="146150116" lat="48.2246578" lon="8.4150303">
<tag k="name" v="Sulgen"/>
<tag k="place" v="town"/>
</node>
<node id="146152140" lat="48.2256907" lon="8.3850493">
<tag k="name" v="Schramberg"/>
<tag k="place" v="town"/>
</node>
<node id="170822396" lat="48.7707515" lon="8.3423847">
<tag k="name" v="Gernsbach"/>
<tag k="place" v="town"/>
</node>
<node id="171728979" lat="48.8032809" lon="8.3204487">
<tag k="name" v="Gaggenau"/>
<tag k="place" v="town"/>
</node>
<node id="174509748" lat="48.5545979" lon="9.3765470">
<tag k="name" v="Neuffen"/>
<tag k="place" v="town"/>
</node>
<node id="181683281" lat="48.8404221" lon="9.1093609">
<tag k="name" v="Korntal-Münchingen"/>
<tag k="place" v="town"/>
</node>
<node id="186684106" lat="49.4935165" lon="9.8175852">
<tag k="name" v="Igersheim"/>
<tag k="place" v="town"/>
</node>
<node id="187709621" lat="49.3233013" lon="9.3611411">
<tag k="name" v="Möckmühl"/>
<tag k="place" v="town"/>
</node>
<node id="193580208" lat="49.4285158" lon="9.4245218">
<tag k="name" v="Osterburken"/>
<tag k="place" v="town"/>
</node>
<node id="193632816" lat="48.1757263" lon="8.0718474">
<tag k="name" v="Elzach"/>
<tag k="place" v="town"/>
</node>
<node id="201035269" lat="47.8682493" lon="8.2023225">
<tag k="name" v="Lenzkirch"/>
<tag k="place" v="town"/>
</node>
<node id="201463600" lat="49.0859318" lon="9.8773778">
<tag k="name" v="Vellberg"/>
<tag k="place" v="town"/>
</node>
<node id="207605658" lat="48.8508814" lon="8.5342175">
<tag k="name" v="Straubenhardt"/>
<tag k="place" v="town"/>
</node>
<node id="214842556" lat="48.8611498" lon="9.1873875">
<tag k="name" v="Kornwestheim"/>
<tag k="place" v="town"/>
</node>
<node id="223727910" lat="48.0657049" lon="8.5361259">
<tag k="name" v="Schwenningen"/>
<tag k="place" v="town"/>
</node>
<node id="223735321" lat="48.5259719" lon="8.5649275">
<tag k="name" v="Pfalzgrafenweiler"/>
<tag k="place" v="town"/>
</node>
<node id="240023543" lat="49.4270040" lon="9.6873613">
<tag k="name" v="Assamstadt"/>
<tag k="place" v="town"/>
</node>
<node id="240026684" lat="49.2535223" lon="9.8472970">
<tag k="name" v="Langenburg"/>
<tag k="place" v="town"/>
</node>
<node id="240027618" lat="47.8835346" lon="8.3451760">
<tag k="name" v="Löffingen"/>
<tag k="place" v="town"/>
</node>
<node id="240028325" lat="48.5955570" lon="8.8674715">
<tag k="name" v="Herrenberg"/>
<tag k="place" v="town"/>
</node>
<node id="240029631" lat="48.3468528" lon="8.0636422">
<tag k="name" v="Zell am Harmersbach"/>
<tag k="place" v="town"/>
</node>
<node id="240029689" lat="47.6929198" lon="10.0400723">
<tag k="name" v="Isny im Allgäu"/>
<tag k="place" v="town"/>
</node>
<node id="240029719" lat="48.2118383" lon="8.5062670">
<tag k="name" v="Dunningen"/>
<tag k="place" v="town"/>
</node>
<node id="240030673" lat="47.8832110" lon="7.7329262">
<tag k="name" v="Staufen im Breisgau"/>
<tag k="place" v="town"/>
</node>
<node id="240033927" lat="48.7913507" lon="9.9363623">
<tag k="name" v="Heubach"/>
<tag k="place" v="town"/>
</node>
<node id="240034605" lat="48.1299532" lon="8.3305410">
<tag k="name" v="Sankt Georgen"/>
<tag k="place" v="town"/>
</node>
<node id="240035127" lat="49.3635412" lon="9.3410856">
<tag k="name" v="Roigheim"/>
<tag k="place" v="town"/>
</node>
<node id="240036637" lat="48.2892031" lon="9.1134796">
<tag k="name" v="Burladingen"/>
<tag k="place" v="town"/>
</node>
<node id="240037507" lat="48.1405176" lon="7.6999532">
<tag k="name" v="Endingen am Kaiserstuhl"/>
<tag k="place" v="town"/>
</node>
<node id="240037966" lat="49.1875021" lon="9.6422167">
<tag k="name" v="Waldenburg"/>
<tag k="place" v="town"/>
</node>
<node id="240039202" lat="48.4035425" lon="8.0153059">
<tag k="name" v="Gengenbach"/>
<tag k="place" v="town"/>
</node>
<node id="240040922" lat="48.5853896" lon="9.4514899">
<tag k="name" v="Owen"/>
<tag k="place" v="town"/>
</node>
<node id="240042255" lat="47.9481666" lon="8.4998444">
<tag k="name" v="Donaueschingen"/>
<tag k="place" v="town"/>
</node>
<node id="240042433" lat="47.5525687" lon="7.9495537">
<tag k="name" v="Bad Säckingen"/>
<tag k="place" v="town"/>
</node>
<node id="240042762" lat="47.5605924" lon="7.7861959">
<tag k="name" v="Rheinfelden (Baden)"/>
<tag k="place" v="town"/>
</node>
<node id="240043095" lat="48.9530744" lon="8.5718473">
<tag k="name" v="Remchingen"/>
<tag k="place" v="town"/>
</node>
<node id="240046189" lat="48.0750600" lon="8.6362987">
<tag k="name" v="Trossingen"/>
<tag k="place" v="town"/>
</node>
<node id="240046246" lat="47.6667000" lon="8.0000000">
<tag k="name" v="Herrischried"/>
<tag k="place" v="town"/>
</node>
<node id="240046422" lat="47.8266137" lon="10.0228027">
<tag k="name" v="Leutkirch"/>
<tag k="place" v="town"/>
</node>
<node id="240047232" lat="48.0222311" lon="8.5299837">
<tag k="name" v="Bad Dürrheim"/>
<tag k="place" v="town"/>
</node>
<node id="240047588" lat="48.5878287" lon="8.6052271">
<tag k="name" v="Altensteig"/>
<tag k="place" v="town"/>
</node>
<node id="240048189" lat="47.9190684" lon="7.7480249">
<tag k="name" v="Ehrenkirchen"/>
<tag k="place" v="town"/>
</node>
<node id="240048451" lat="49.0967050" lon="8.4895752">
<tag k="name" v="Stutensee"/>
<tag k="place" v="town"/>
</node>
<node id="240048870" lat="48.4967623" lon="10.1230145">
<tag k="name" v="Langenau"/>
<tag k="place" v="town"/>
</node>
<node id="240048885" lat="48.8749545" lon="9.2648978">
<tag k="name" v="Remseck am Neckar"/>
<tag k="place" v="town"/>
</node>
<node id="240049572" lat="48.1333000" lon="8.2333300">
<tag k="name" v="Triberg"/>
<tag k="place" v="town"/>
</node>
<node id="240050069" lat="49.3446506" lon="9.9785015">
<tag k="name" v="Schrozberg"/>
<tag k="place" v="town"/>
</node>
<node id="240050249" lat="47.7667015" lon="9.1666626">
<tag k="name" v="Überlingen"/>
<tag k="place" v="town"/>
</node>
<node id="240050467" lat="48.6283038" lon="9.2417217">
<tag k="name" v="Aichtal"/>
<tag k="place" v="town"/>
</node>
<node id="240050542" lat="47.9018433" lon="8.1485360">
<tag k="name" v="Titisee-Neustadt"/>
<tag k="place" v="town"/>
</node>
<node id="240050981" lat="48.6904198" lon="9.1525054">
<tag k="name" v="Leinfelden-Echterdingen"/>
<tag k="place" v="town"/>
</node>
<node id="240051835" lat="48.2769011" lon="8.0871643">
<tag k="name" v="Haslach im Kinzigtal"/>
<tag k="place" v="town"/>
</node>
<node id="240052230" lat="48.8383297" lon="10.0935683">
<tag k="name" v="Aalen"/>
<tag k="place" v="town"/>
</node>
<node id="240052642" lat="48.6282648" lon="8.0716877">
<tag k="name" v="Achern"/>
<tag k="place" v="town"/>
</node>
<node id="240053183" lat="47.8099613" lon="7.6257276">
<tag k="name" v="Müllheim"/>
<tag k="place" v="town"/>
</node>
<node id="240053216" lat="47.6221367" lon="8.2170582">
<tag k="name" v="Waldshut"/>
<tag k="place" v="town"/>
</node>
<node id="240053255" lat="48.2338891" lon="7.7135585">
<tag k="name" v="Rheinhausen"/>
<tag k="place" v="town"/>
</node>
<node id="240053282" lat="49.1700000" lon="9.9188900">
<tag k="name" v="Ilshofen"/>
<tag k="place" v="town"/>
</node>
<node id="240053295" lat="49.2844000" lon="9.1619400">
<tag k="name" v="Gundelsheim"/>
<tag k="place" v="town"/>
</node>
<node id="240054408" lat="49.3528202" lon="9.1454889">
<tag k="name" v="Mosbach"/>
<tag k="place" v="town"/>
</node>
<node id="240054451" lat="48.2167053" lon="9.0166668">
<tag k="name" v="Albstadt"/>
<tag k="place" v="town"/>
</node>
<node id="240055498" lat="49.5653000" lon="9.7041700">
<tag k="name" v="Lauda-Königshofen"/>
<tag k="place" v="town"/>
</node>
<node id="240055882" lat="48.2900021" lon="8.3436231">
<tag k="name" v="Schiltach"/>
<tag k="place" v="town"/>
</node>
<node id="240057797" lat="47.8559252" lon="9.0129723">
<tag k="name" v="Stockach"/>
<tag k="place" v="town"/>
</node>
<node id="240058263" lat="49.2498754" lon="9.9220704">
<tag k="name" v="Gerabronn"/>
<tag k="place" v="town"/>
</node>
<node id="240059139" lat="48.2151545" lon="10.0726965">
<tag k="name" v="Dietenheim"/>
<tag k="place" v="town"/>
</node>
<node id="240060111" lat="48.9000039" lon="8.5833283">
<tag k="name" v="Keltern"/>
<tag k="place" v="town"/>
</node>
<node id="240060839" lat="47.9844382" lon="8.8186660">
<tag k="name" v="Tuttlingen"/>
<tag k="place" v="town"/>
</node>
<node id="240060887" lat="47.7363236" lon="8.9735043">
<tag k="name" v="Radolfzell"/>
<tag k="place" v="town"/>
</node>
<node id="240061968" lat="48.3081354" lon="9.2444053">
<tag k="name" v="Trochtelfingen"/>
<tag k="place" v="town"/>
</node>
<node id="240062265" lat="48.6849690" lon="9.0113444">
<tag k="name" v="Böblingen"/>
<tag k="place" v="town"/>
</node>
<node id="240063916" lat="49.3038134" lon="8.6433518">
<tag k="name" v="Walldorf"/>
<tag k="place" v="town"/>
</node>
<node id="240064969" lat="48.6767637" lon="10.1529230">
<tag k="name" v="Heidenheim"/>
<tag k="place" v="town"/>
</node>
<node id="240065155" lat="48.8574209" lon="8.2088088">
<tag k="name" v="Rastatt"/>
<tag k="place" v="town"/>
</node>
<node id="240067104" lat="48.5376786" lon="9.2814174">
<tag k="name" v="Metzingen"/>
<tag k="place" v="town"/>
</node>
<node id="240067808" lat="48.3274603" lon="9.8913803">
<tag k="name" v="Erbach"/>
<tag k="place" v="town"/>
</node>
<node id="240068243" lat="49.2553000" lon="8.8772200">
<tag k="name" v="Sinsheim"/>
<tag k="place" v="town"/>
</node>
<node id="240068352" lat="48.7536876" lon="10.3348444">
<tag k="name" v="Neresheim"/>
<tag k="place" v="town"/>
</node>
<node id="240068522" lat="48.2997602" lon="8.2217889">
<tag k="name" v="Wolfach"/>
<tag k="place" v="town"/>
</node>
<node id="240069216" lat="47.7295880" lon="8.8453483">
<tag k="name" v="Rielasingen-Worblingen"/>
<tag k="place" v="town"/>
</node>
<node id="240069687" lat="47.5543859" lon="7.7922905">
<tag k="name" v="Rheinfelden AG"/>
<tag k="place" v="town"/>
</node>
<node id="240070171" lat="48.3398544" lon="7.8674472">
<tag k="name" v="Lahr"/>
<tag k="place" v="town"/>
</node>
<node id="240070689" lat="48.3617509" lon="8.6314329">
<tag k="name" v="Sulz am Neckar"/>
<tag k="place" v="town"/>
</node>
<node id="240071172" lat="47.8392303" lon="8.5313351">
<tag k="name" v="Blumberg"/>
<tag k="place" v="town"/>
</node>
<node id="240071322" lat="48.0498768" lon="8.2003522">
<tag k="name" v="Furtwangen"/>
<tag k="place" v="town"/>
</node>
<node id="240073985" lat="48.2886289" lon="8.8135495">
<tag k="name" v="Geislingen b. Balingen"/>
<tag k="place" v="town"/>
</node>
<node id="240074290" lat="49.5917041" lon="8.6463855">
<tag k="name" v="Hemsbach"/>
<tag k="place" v="town"/>
</node>
<node id="240075379" lat="49.2058000" lon="9.5791700">
<tag k="name" v="Neuenstein"/>
<tag k="place" v="town"/>
</node>
<node id="240077329" lat="48.0883234" lon="7.6278850">
<tag k="name" v="Vogtsburg im Kaiserstuhl"/>
<tag k="place" v="town"/>
</node>
<node id="240077471" lat="49.4811601" lon="9.6411036">
<tag k="name" v="Boxberg"/>
<tag k="place" v="town"/>
</node>
<node id="240077800" lat="48.8181556" lon="9.2780850">
<tag k="name" v="Fellbach"/>
<tag k="place" v="town"/>
</node>
<node id="240078196" lat="49.1413236" lon="9.0594371">
<tag k="name" v="Schwaigern"/>
<tag k="place" v="town"/>
</node>
<node id="240079245" lat="48.6966470" lon="9.7063318">
<tag k="name" v="Eislingen/Fils"/>
<tag k="place" v="town"/>
</node>
<node id="240079621" lat="49.4000000" lon="9.9194400">
<tag k="name" v="Niederstetten"/>
<tag k="place" v="town"/>
</node>
<node id="240080572" lat="49.2089408" lon="8.6498754">
<tag k="name" v="Bad Schönborn"/>
<tag k="place" v="town"/>
</node>
<node id="240080860" lat="49.2358053" lon="8.4563825">
<tag k="name" v="Philippsburg"/>
<tag k="place" v="town"/>
</node>
<node id="240080944" lat="48.9714945" lon="8.2994571">
<tag k="name" v="Rheinstetten"/>
<tag k="place" v="town"/>
</node>
<node id="240081804" lat="48.9652015" lon="9.2789021">
<tag k="name" v="Steinheim an der Murr"/>
<tag k="place" v="town"/>
</node>
<node id="240082036" lat="48.2836305" lon="8.1749720">
<tag k="name" v="Hausach"/>
<tag k="place" v="town"/>
</node>
<node id="240082154" lat="48.7178603" lon="9.2630693">
<tag k="name" v="Ostfildern"/>
<tag k="place" v="town"/>
</node>
<node id="240082935" lat="48.0458167" lon="8.3036070">
<tag k="name" v="Vöhrenbach"/>
<tag k="place" v="town"/>
</node>
<node id="240083431" lat="48.2101661" lon="8.7577596">
<tag k="name" v="Schömberg"/>
<tag k="place" v="town"/>
</node>
<node id="240084094" lat="48.5250249" lon="8.6472766">
<tag k="name" v="Haiterbach"/>
<tag k="place" v="town"/>
</node>
<node id="240084473" lat="48.7503552" lon="8.5502839">
<tag k="name" v="Bad Wildbad"/>
<tag k="place" v="town"/>
</node>
<node id="240084735" lat="48.7052936" lon="9.6607959">
<tag k="name" v="Göppingen"/>
<tag k="place" v="town"/>
</node>
<node id="240084980" lat="48.8491256" lon="8.5871560">
<tag k="name" v="Neuenbürg"/>
<tag k="place" v="town"/>
</node>
<node id="240086841" lat="48.8317396" lon="9.3158532">
<tag k="name" v="Waiblingen"/>
<tag k="place" v="town"/>
</node>
<node id="240087110" lat="48.6678905" lon="7.9356649">
<tag k="name" v="Rheinau"/>
<tag k="place" v="town"/>
</node>
<node id="240087144" lat="48.5236164" lon="9.0535531">
<tag k="name" v="Tübingen"/>
<tag k="place" v="town"/>
</node>
<node id="240087592" lat="47.7215301" lon="9.3940700">
<tag k="name" v="Markdorf"/>
<tag k="place" v="town"/>
</node>
<node id="240088923" lat="48.3499806" lon="8.4999004">
<tag k="name" v="Dornhan"/>
<tag k="place" v="town"/>
</node>
<node id="240090216" lat="47.9346289" lon="7.6277434">
<tag k="name" v="Hartheim"/>
<tag k="place" v="town"/>
</node>
<node id="240090562" lat="48.4767761" lon="8.9349606">
<tag k="name" v="Rottenburg am Neckar"/>
<tag k="place" v="town"/>
</node>
<node id="240090661" lat="47.8736320" lon="7.6580310">
<tag k="name" v="Heitersheim"/>
<tag k="place" v="town"/>
</node>
<node id="240090762" lat="48.7983947" lon="9.0624386">
<tag k="name" v="Gerlingen"/>
<tag k="place" v="town"/>
</node>
<node id="240090876" lat="49.5223319" lon="9.3241847">
<tag k="name" v="Buchen (Odenwald)"/>
<tag k="place" v="town"/>
</node>
<node id="240091301" lat="49.5833000" lon="9.3666700">
<tag k="name" v="Walldürn"/>
<tag k="place" v="town"/>
</node>
<node id="240092276" lat="48.9402085" lon="9.2563960">
<tag k="name" v="Marbach"/>
<tag k="place" v="town"/>
</node>
<node id="240092445" lat="47.6333054" lon="7.8999925">
<tag k="name" v="Wehr"/>
<tag k="place" v="town"/>
</node>
<node id="240093252" lat="48.2198805" lon="7.7769882">
<tag k="name" v="Herbolzheim"/>
<tag k="place" v="town"/>
</node>
<node id="240094846" lat="49.7486131" lon="9.3261061">
<tag k="name" v="Freudenberg"/>
<tag k="place" v="town"/>
</node>
<node id="240094938" lat="49.7571696" lon="9.5134313">
<tag k="name" v="Wertheim"/>
<tag k="place" v="town"/>
</node>
<node id="240095542" lat="47.8215720" lon="8.6618851">
<tag k="name" v="Tengen"/>
<tag k="place" v="town"/>
</node>
<node id="240095854" lat="48.4167698" lon="9.9168998">
<tag k="name" v="Blaustein"/>
<tag k="place" v="town"/>
</node>
<node id="240096611" lat="48.2126216" lon="8.2296518">
<tag k="name" v="Hornberg"/>
<tag k="place" v="town"/>
</node>
<node id="240097804" lat="48.7044724" lon="9.5856136">
<tag k="name" v="Uhingen"/>
<tag k="place" v="town"/>
</node>
<node id="240098854" lat="47.9230819" lon="8.6491753">
<tag k="name" v="Geisingen"/>
<tag k="place" v="town"/>
</node>
<node id="240099245" lat="48.7579974" lon="8.2422878">
<tag k="name" v="Baden-Baden"/>
<tag k="place" v="town"/>
</node>
<node id="240099552" lat="49.2361584" lon="9.3293362">
<tag k="name" v="Neuenstadt"/>
<tag k="place" v="town"/>
</node>
<node id="240099666" lat="48.1534412" lon="9.4748796">
<tag k="name" v="Riedlingen"/>
<tag k="place" v="town"/>
</node>
<node id="240101387" lat="48.0939396" lon="7.9610142">
<tag k="name" v="Waldkirch"/>
<tag k="place" v="town"/>
</node>
<node id="240101503" lat="48.0291415" lon="7.5806123">
<tag k="name" v="Breisach am Rhein"/>
<tag k="place" v="town"/>
</node>
<node id="240101872" lat="47.7470899" lon="8.4477386">
<tag k="name" v="Stühlingen"/>
<tag k="place" v="town"/>
</node>
<node id="240102020" lat="47.8195734" lon="8.3420675">
<tag k="name" v="Bonndorf"/>
<tag k="place" v="town"/>
</node>
<node id="240102059" lat="48.0497960" lon="9.3316096">
<tag k="name" v="Mengen"/>
<tag k="place" v="town"/>
</node>
<node id="240102157" lat="47.8532383" lon="8.7704457">
<tag k="name" v="Engen"/>
<tag k="place" v="town"/>
</node>
<node id="240102896" lat="48.5307122" lon="8.0783998">
<tag k="name" v="Oberkirch"/>
<tag k="place" v="town"/>
</node>
<node id="240103132" lat="49.4025000" lon="8.6330600">
<tag k="name" v="Eppelheim"/>
<tag k="place" v="town"/>
</node>
<node id="240104569" lat="48.9832999" lon="8.5500000">
<tag k="name" v="Pfinztal"/>
<tag k="place" v="town"/>
</node>
<node id="240105533" lat="48.4833000" lon="9.2500000">
<tag k="name" v="Eningen unter Achalm"/>
<tag k="place" v="town"/>
</node>
<node id="240105830" lat="48.0632739" lon="8.4945880">
<tag k="name" v="Villingen-Schwenningen"/>
<tag k="place" v="town"/>
</node>
<node id="240106456" lat="48.9060708" lon="9.1341296">
<tag k="name" v="Asperg"/>
<tag k="place" v="town"/>
</node>
<node id="240106777" lat="49.0404494" lon="9.3135138">
<tag k="name" v="Beilstein"/>
<tag k="place" v="town"/>
</node>
<node id="240106869" lat="48.0855272" lon="9.2179101">
<tag k="name" v="Sigmaringen"/>
<tag k="place" v="town"/>
</node>
<node id="240109220" lat="49.0592000" lon="8.6583300">
<tag k="name" v="Gondelsheim"/>
<tag k="place" v="town"/>
</node>
<node id="240109639" lat="48.4656175" lon="9.2258951">
<tag k="name" v="Pfullingen"/>
<tag k="place" v="town"/>
</node>
<node id="240110556" lat="48.9329116" lon="8.9594655">
<tag k="name" v="Vaihingen an der Enz"/>
<tag k="place" v="town"/>
</node>
<node id="240114621" lat="48.8000000" lon="9.6833300">
<tag k="name" v="Lorch"/>
<tag k="place" v="town"/>
</node>
<node id="240115230" lat="48.5545546" lon="8.9643711">
<tag k="name" v="Ammerbuch"/>
<tag k="place" v="town"/>
</node>
<node id="240115457" lat="49.1303000" lon="8.7436500">
<tag k="name" v="Kraichtal"/>
<tag k="place" v="town"/>
</node>
<node id="240116226" lat="47.9299867" lon="8.4482647">
<tag k="name" v="Bräunlingen"/>
<tag k="place" v="town"/>
</node>
<node id="240116632" lat="49.3491417" lon="8.6909951">
<tag k="name" v="Leimen"/>
<tag k="place" v="town"/>
</node>
<node id="240117878" lat="47.7611969" lon="8.8335192">
<tag k="name" v="Singen (Hohentwiel)"/>
<tag k="place" v="town"/>
</node>
<node id="240118737" lat="49.4480832" lon="8.8975101">
<tag k="name" v="Hirschhorn (Neckar)"/>
<tag k="place" v="town"/>
</node>
<node id="240118826" lat="48.4128592" lon="9.4947894">
<tag k="name" v="Münsingen"/>
<tag k="place" v="town"/>
</node>
<node id="240119097" lat="47.9269484" lon="8.4892187">
<tag k="name" v="Hüfingen"/>
<tag k="place" v="town"/>
</node>
<node id="240119496" lat="48.1206565" lon="7.8509930">
<tag k="name" v="Emmendingen"/>
<tag k="place" v="town"/>
</node>
<node id="240119730" lat="48.9345539" lon="9.1922557">
<tag k="name" v="Freiberg am Neckar"/>
<tag k="place" v="town"/>
</node>
<node id="240120188" lat="48.6945066" lon="8.1344230">
<tag k="name" v="Bühl"/>
<tag k="place" v="town"/>
</node>
<node id="240120724" lat="48.8770486" lon="9.3990724">
<tag k="name" v="Winnenden"/>
<tag k="place" v="town"/>
</node>
<node id="240121357" lat="49.0748477" lon="9.1522409">
<tag k="name" v="Lauffen"/>
<tag k="place" v="town"/>
</node>
<node id="240121418" lat="49.5523036" lon="8.6664545">
<tag k="name" v="Weinheim"/>
<tag k="place" v="town"/>
</node>
<node id="240121856" lat="48.2870550" lon="7.8121378">
<tag k="name" v="Mahlberg"/>
<tag k="place" v="town"/>
</node>
<node id="240122718" lat="47.8441308" lon="8.8519587">
<tag k="name" v="Aach"/>
<tag k="place" v="town"/>
</node>
<node id="240124432" lat="49.0364564" lon="8.7072589">
<tag k="name" v="Bretten"/>
<tag k="place" v="town"/>
</node>
<node id="240124620" lat="47.9245987" lon="9.2533029">
<tag k="name" v="Pfullendorf"/>
<tag k="place" v="town"/>
</node>
<node id="240125631" lat="48.7997485" lon="9.0127567">
<tag k="name" v="Leonberg"/>
<tag k="place" v="town"/>
</node>
<node id="240126331" lat="49.1241180" lon="8.5980244">
<tag k="name" v="Bruchsal"/>
<tag k="place" v="town"/>
</node>
<node id="240127891" lat="49.4806000" lon="9.9050000">
<tag k="name" v="Weikersheim"/>
<tag k="place" v="town"/>
</node>
<node id="240127901" lat="49.4635303" lon="8.9855203">
<tag k="name" v="Eberbach"/>
<tag k="place" v="town"/>
</node>
<node id="240128295" lat="48.5873988" lon="8.0143673">
<tag k="name" v="Renchen"/>
<tag k="place" v="town"/>
</node>
<node id="240129284" lat="49.2485721" lon="8.5162770">
<tag k="name" v="Waghäusel"/>
<tag k="place" v="town"/>
</node>
<node id="240129351" lat="47.7000038" lon="9.2666666">
<tag k="name" v="Meersburg"/>
<tag k="place" v="town"/>
</node>
<node id="240129751" lat="48.5731509" lon="7.8111039">
<tag k="name" v="Kehl"/>
<tag k="place" v="town"/>
</node>
<node id="267015874" lat="47.5652403" lon="8.0585639">
<tag k="name" v="Laufenburg"/>
<tag k="place" v="town"/>
</node>
<node id="271803321" lat="49.3420088" lon="8.6597789">
<tag k="name" v="Sandhausen"/>
<tag k="place" v="town"/>
</node>
<node id="281028926" lat="47.6354859" lon="8.2744791">
<tag k="name" v="Tiengen"/>
<tag k="place" v="town"/>
</node>
<node id="303602726" lat="47.8176646" lon="7.5630615">
<tag k="name" v="Neuenburg am Rhein"/>
<tag k="place" v="town"/>
</node>
<node id="367503056" lat="49.4057144" lon="9.3906720">
<tag k="name" v="Adelsheim"/>
<tag k="place" v="town"/>
</node>
<node id="530641425" lat="47.5560310" lon="7.7347234">
<tag k="name" v="Herten (Baden)"/>
<tag k="place" v="town"/>
</node>
<node id="603235557" lat="48.4663553" lon="8.5012993">
<tag k="name" v="Dornstetten"/>
<tag k="place" v="town"/>
</node>
<node id="609643192" lat="47.9525735" lon="9.6410388">
<tag k="name" v="Aulendorf"/>
<tag k="place" v="town"/>
</node>
<node id="1088527333" lat="48.6226688" lon="8.7484361">
<tag k="name" v="Wildberg"/>
<tag k="place" v="town"/>
</node>
<node id="1314913599" lat="48.9654062" lon="9.0583956">
<tag k="name" v="Sachsenheim"/>
<tag k="place" v="town"/>
</node>
<node id="1357415734" lat="48.6484374" lon="9.4533358">
<tag k="place" v="town"/>
</node>
<node id="1357415738" lat="48.6487921" lon="9.4514103">
<tag k="place" v="town"/>
</node>
<node id="1462883626" lat="49.2194842" lon="8.7095912">
<tag k="name" v="Östringen"/>
<tag k="place" v="town"/>
</node>
<node id="1483240541" lat="48.9038411" lon="8.5088293">
<tag k="name" v="Karlsbad"/>
<tag k="place" v="town"/>
</node>
<node id="1551142632" lat="48.1672957" lon="8.5935291">
<tag k="name" v="Zimmern ob Rottweil"/>
<tag k="place" v="town"/>
</node>
<node id="1557701515" lat="48.1655310" lon="8.6251283">
<tag k="name" v="Rottweil"/>
<tag k="place" v="town"/>
</node>
<node id="1559105132" lat="49.1917350" lon="9.2249443">
<tag k="name" v="Neckarsulm"/>
<tag k="place" v="town"/>
</node>
<node id="1575423027" lat="48.0774112" lon="8.7377086">
<tag k="name" v="Spaichingen"/>
<tag k="place" v="town"/>
</node>
<node id="1587796681" lat="47.8405127" lon="7.7077606">
<tag k="name" v="Sulzburg"/>
<tag k="place" v="town"/>
</node>
<node id="1589210357" lat="48.2880909" lon="8.7233324">
<tag k="name" v="Rosenfeld"/>
<tag k="place" v="town"/>
</node>
<node id="1594416555" lat="48.6616311" lon="9.2236805">
<tag k="name" v="Filderstadt"/>
<tag k="place" v="town"/>
</node>
<node id="1599083298" lat="49.1123963" lon="9.7369047">
<tag k="name" v="Schwäbisch Hall"/>
<tag k="place" v="town"/>
</node>
<node id="1612969734" lat="49.4905320" lon="9.7730692">
<tag k="name" v="Bad Mergentheim"/>
<tag k="place" v="town"/>
</node>
<node id="1616490862" lat="48.7693395" lon="8.9366038">
<tag k="name" v="Renningen"/>
<tag k="place" v="town"/>
</node>
<node id="1621605025" lat="48.9466491" lon="9.4310259">
<tag k="name" v="Backnang"/>
<tag k="place" v="town"/>
</node>
<node id="1621903329" lat="48.7501041" lon="8.8707147">
<tag k="name" v="Weil der Stadt"/>
<tag k="place" v="town"/>
</node>
<node id="1622603483" lat="47.9167956" lon="8.2107236">
<tag k="name" v="Neustadt"/>
<tag k="place" v="town"/>
</node>
<node id="1625432848" lat="48.9602050" lon="10.1330376">
<tag k="name" v="Ellwangen (Jagst)"/>
<tag k="place" v="town"/>
</node>
<node id="1625565881" lat="48.8058219" lon="9.5270559">
<tag k="name" v="Schorndorf"/>
<tag k="place" v="town"/>
</node>
<node id="1636999091" lat="47.6589793" lon="9.1751748">
<tag k="name" v="Konstanz"/>
<tag k="place" v="town"/>
</node>
<node id="1641087217" lat="48.6886008" lon="8.6882289">
<tag k="name" v="Bad Teinach"/>
<tag k="place" v="town"/>
</node>
<node id="1641087603" lat="48.6949491" lon="8.6893226">
<tag k="name" v="Zavelstein"/>
<tag k="place" v="town"/>
</node>
<node id="1668873366" lat="47.5766617" lon="7.6310293">
<tag k="name" v="Riehen"/>
<tag k="place" v="town"/>
</node>
<node id="1677928508" lat="47.6512377" lon="9.4800226">
<tag k="name" v="Friedrichshafen"/>
<tag k="place" v="town"/>
</node>
<node id="1679234604" lat="47.6996351" lon="9.5609057">
<tag k="name" v="Meckenbeuren"/>
<tag k="place" v="town"/>
</node>
<node id="1681180078" lat="47.6722665" lon="9.5905440">
<tag k="name" v="Tettnang"/>
<tag k="place" v="town"/>
</node>
<node id="1682336229" lat="49.3954054" lon="8.7965893">
<tag k="name" v="Neckargemünd"/>
<tag k="place" v="town"/>
</node>
<node id="1684858606" lat="49.4571949" lon="8.6053654">
<tag k="name" v="Edingen-Neckarhausen"/>
<tag k="place" v="town"/>
</node>
<node id="1686996586" lat="49.4492420" lon="8.6732428">
<tag k="name" v="Dossenheim"/>
<tag k="place" v="town"/>
</node>
<node id="1686996632" lat="49.3203919" lon="8.5499278">
<tag k="name" v="Hockenheim"/>
<tag k="place" v="town"/>
</node>
<node id="1686996674" lat="49.4751705" lon="8.6611149">
<tag k="name" v="Schriesheim"/>
<tag k="place" v="town"/>
</node>
<node id="1686996697" lat="49.3832919" lon="8.5735135">
<tag k="name" v="Schwetzingen"/>
<tag k="place" v="town"/>
</node>
<node id="1689887303" lat="47.8111072" lon="9.6398815">
<tag k="name" v="Weingarten"/>
<tag k="place" v="town"/>
</node>
<node id="1692358838" lat="48.4445407" lon="8.6886159">
<tag k="name" v="Horb am Neckar"/>
<tag k="place" v="town"/>
</node>
<node id="1693831421" lat="48.1812116" lon="8.9603014">
<tag k="name" v="Meßstetten"/>
<tag k="place" v="town"/>
</node>
<node id="1699831805" lat="48.2828519" lon="9.7262175">
<tag k="name" v="Ehingen (Donau)"/>
<tag k="place" v="town"/>
</node>
<node id="1700292118" lat="48.6943334" lon="9.4189845">
<tag k="name" v="Wernau"/>
<tag k="place" v="town"/>
</node>
<node id="1734202177" lat="49.1018097" lon="9.7381559">
<tag k="name" v="Gewerbliche Schule"/>
<tag k="place" v="town"/>
</node>
<node id="1741594835" lat="49.4720560" lon="8.6095390">
<tag k="name" v="Ladenburg"/>
<tag k="place" v="town"/>
</node>
<node id="1776602020" lat="47.5604617" lon="8.0601696">
<tag k="name" v="Laufenburg"/>
<tag k="place" v="town"/>
</node>
</osm>
